     3.02           N: GNSS NAV DATA    G: GPS              RINEX VERSION / TYPE
cnvtToRINEX 2.90.0  convertToRINEX OPR  25-Mar-19 08:16 UTC PGM / RUN BY / DATE 
----------------------------------------------------------- COMMENT             
GPSA   0.7451D-08 -0.1490D-07 -0.5960D-07  0.1192D-06       IONOSPHERIC CORR    
GPSB   0.8806D+05 -0.4915D+05 -0.1966D+06  0.3277D+06       IONOSPHERIC CORR    
GPUT  0.0000000000D+00-0.266453526D-14 589824 2036          TIME SYSTEM CORR    
    18                                                      LEAP SECONDS        
                                                            END OF HEADER       
G23 2019 01 16 05 59 44-0.200379639864D-03 0.113686837722D-11 0.000000000000D+00
     0.510000000000D+02-0.177187500000D+02 0.489341811622D-08 0.249511159349D+01
    -0.112131237984D-05 0.126966065727D-01 0.875815749168D-05 0.515365904236D+04
     0.280784000000D+06-0.335276126862D-07 0.147193723840D+01-0.189989805222D-06
     0.942932414840D+00 0.200593750000D+03-0.230816044111D+01-0.801211945122D-08
    -0.309298597814D-09 0.100000000000D+01 0.203600000000D+04 0.000000000000D+00
     0.240000000000D+01 0.000000000000D+00-0.200234353542D-07 0.510000000000D+02
     0.273978000000D+06 0.400000000000D+01 0.000000000000D+00 0.000000000000D+00
G28 2019 01 16 05 59 44 0.762071926147D-03 0.113686837722D-11 0.000000000000D+00
     0.160000000000D+02 0.313750000000D+02 0.421981862953D-08-0.152631470655D+01
     0.214017927647D-05 0.194628575118D-01 0.406801700592D-05 0.515369798660D+04
     0.280784000000D+06-0.102445483208D-06-0.261056082975D+01 0.456348061562D-06
     0.983783091429D+00 0.315093750000D+03-0.147930402572D+01-0.813712465819D-08
     0.475019786481D-10 0.100000000000D+01 0.203600000000D+04 0.000000000000D+00
     0.240000000000D+01 0.000000000000D+00-0.111758708954D-07 0.160000000000D+02
     0.274206000000D+06 0.400000000000D+01 0.000000000000D+00 0.000000000000D+00
G 8 2019 01 16 05 59 44-0.129232183099D-03-0.136424205266D-11 0.000000000000D+00
     0.900000000000D+01-0.594375000000D+02 0.438196824085D-08-0.201456835536D+01
    -0.314414501190D-05 0.413233728614D-02 0.649504363537D-05 0.515368484116D+04
     0.280784000000D+06-0.121071934700D-06-0.166555404535D+01-0.521540641785D-07
     0.969860393275D+00 0.262937500000D+03-0.384297758218D+00-0.810676625078D-08
    -0.100361323309D-09 0.100000000000D+01 0.203600000000D+04 0.000000000000D+00
     0.240000000000D+01 0.000000000000D+00 0.512227416039D-08 0.900000000000D+01
     0.275058000000D+06 0.400000000000D+01 0.000000000000D+00 0.000000000000D+00
G 3 2019 01 16 05 59 44 0.177492853254D-03 0.250111042988D-11 0.000000000000D+00
     0.200000000000D+01-0.108437500000D+02 0.478269921862D-08 0.658083159096D+00
    -0.594183802605D-06 0.187710043974D-02 0.643171370029D-05 0.515359654045D+04
     0.280784000000D+06 0.335276126862D-07 0.443005538490D+00 0.130385160446D-07
     0.962375593824D+00 0.254812500000D+03 0.673008885087D+00-0.820855620503D-08
     0.792890169915D-10 0.100000000000D+01 0.203600000000D+04 0.000000000000D+00
     0.240000000000D+01 0.000000000000D+00 0.232830643654D-08 0.200000000000D+01
     0.276078000000D+06 0.400000000000D+01 0.000000000000D+00 0.000000000000D+00
G19 2019 01 16 05 59 44-0.362853053957D-03 0.397903932026D-11 0.000000000000D+00
     0.900000000000D+01-0.703750000000D+02 0.412445751450D-08 0.379363960203D+00
    -0.358745455742D-05 0.937257788610D-02 0.760145485401D-05 0.515362062836D+04
     0.280784000000D+06-0.100582838058D-06-0.155327647547D+01 0.298023223877D-07
     0.981260618358D+00 0.246187500000D+03 0.133284028834D+01-0.811926677148D-08
    -0.198222542479D-09 0.100000000000D+01 0.203600000000D+04 0.000000000000D+00
     0.240000000000D+01 0.000000000000D+00-0.153668224812D-07 0.900000000000D+01
     0.276948000000D+06 0.400000000000D+01 0.000000000000D+00 0.000000000000D+00
G31 2019 01 16 06 00 00 0.654323957860D-04-0.261479726760D-11 0.000000000000D+00
     0.490000000000D+02 0.693125000000D+02 0.436732477375D-08 0.698893810247D+00
     0.378675758839D-05 0.925484346226D-02 0.924617052078D-05 0.515354875565D+04
     0.280800000000D+06 0.173225998878D-06 0.256616243638D+01 0.100582838058D-06
     0.961199874359D+00 0.198812500000D+03-0.328259287031D-01-0.799283293357D-08
     0.467876631797D-10 0.100000000000D+01 0.203600000000D+04 0.000000000000D+00
     0.240000000000D+01 0.000000000000D+00-0.135041773319D-07 0.490000000000D+02
     0.276972000000D+06 0.400000000000D+01 0.000000000000D+00 0.000000000000D+00
G 9 2019 01 16 06 00 00 0.471139792353D-03-0.466116034659D-11 0.000000000000D+00
     0.460000000000D+02-0.125937500000D+02 0.476055543910D-08-0.198443029578D+01
    -0.717118382454D-06 0.148973835167D-02 0.886246562004D-05 0.515375154686D+04
     0.280800000000D+06 0.409781932831D-07 0.147579169692D+01 0.596046447754D-07
     0.952117307965D+00 0.205031250000D+03 0.169985636708D+01-0.807390773924D-08
    -0.343228582562D-09 0.100000000000D+01 0.203600000000D+04 0.000000000000D+00
     0.240000000000D+01 0.000000000000D+00 0.139698386192D-08 0.460000000000D+02
     0.277866000000D+06 0.400000000000D+01 0.000000000000D+00 0.000000000000D+00
G11 2019 01 16 05 59 44-0.674651935697D-03 0.534328137292D-11 0.000000000000D+00
     0.430000000000D+02-0.608125000000D+02 0.573881047306D-08 0.104194536125D+01
    -0.340491533279D-05 0.165993478149D-01 0.817701220512D-05 0.515368480873D+04
     0.280784000000D+06-0.856816768646D-07-0.104151415298D+01-0.415369868279D-06
     0.908041891795D+00 0.197031250000D+03 0.185541044040D+01-0.879143762724D-08
     0.106433004790D-09 0.100000000000D+01 0.203600000000D+04 0.000000000000D+00
     0.240000000000D+01 0.000000000000D+00-0.121071934700D-07 0.430000000000D+02
     0.277956000000D+06 0.400000000000D+01 0.000000000000D+00 0.000000000000D+00
G 6 2019 01 16 06 00 00 0.295930542052D-03-0.761701812735D-11 0.000000000000D+00
     0.570000000000D+02-0.272500000000D+02 0.415445876417D-08 0.199692701893D+01
    -0.138022005558D-05 0.134604482446D-02 0.961124897003D-05 0.515378079605D+04
     0.280800000000D+06 0.223517417908D-07-0.607484071876D+00 0.111758708954D-07
     0.973911036424D+00 0.197843750000D+03-0.119530799061D+01-0.784104089654D-08
     0.259653672761D-09 0.100000000000D+01 0.203600000000D+04 0.000000000000D+00
     0.240000000000D+01 0.000000000000D+00 0.465661287308D-08 0.570000000000D+02
     0.280428000000D+06 0.400000000000D+01 0.000000000000D+00 0.000000000000D+00
G 3 2019 01 16 07 59 44 0.177510548383D-03 0.250111042988D-11 0.000000000000D+00
     0.300000000000D+01-0.603125000000D+01 0.478448500729D-08 0.170871594379D+01
    -0.361353158951D-06 0.187695957720D-02 0.626593828201D-05 0.515359511375D+04
     0.287984000000D+06-0.689178705215D-07 0.442946062093D+00 0.689178705215D-07
     0.962376550572D+00 0.258031250000D+03 0.672606603096D+00-0.816962601200D-08
     0.166792661870D-09 0.100000000000D+01 0.203600000000D+04 0.000000000000D+00
     0.240000000000D+01 0.000000000000D+00 0.232830643654D-08 0.300000000000D+01
     0.280818000000D+06 0.400000000000D+01 0.000000000000D+00 0.000000000000D+00
G22 2019 01 16 08 00 00-0.623865053058D-03-0.864019966684D-11 0.000000000000D+00
     0.500000000000D+02 0.365625000000D+01 0.553880214191D-08-0.209842260315D+01
     0.244006514549D-06 0.708854116965D-02 0.595115125179D-05 0.515359876823D+04
     0.288000000000D+06 0.521540641785D-07 0.374733095949D+00 0.126659870148D-06
     0.926744993689D+00 0.242875000000D+03-0.143429625967D+01-0.844392315186D-08
     0.223937899341D-09 0.100000000000D+01 0.203600000000D+04 0.000000000000D+00
     0.240000000000D+01 0.000000000000D+00-0.181607902050D-07 0.500000000000D+02
     0.280818000000D+06 0.400000000000D+01 0.000000000000D+00 0.000000000000D+00
G18 2019 01 16 08 00 00 0.162855722010D-04 0.375166564481D-11 0.000000000000D+00
     0.600000000000D+01-0.481562500000D+02 0.456126142342D-08 0.257084460956D+01
    -0.251457095146D-05 0.149882156402D-01 0.946410000324D-05 0.515360477638D+04
     0.288000000000D+06 0.135973095894D-06-0.651513028693D+00-0.193715095520D-06
     0.952696945366D+00 0.188750000000D+03 0.136834185179D+01-0.776068040635D-08
     0.214294640518D-09 0.100000000000D+01 0.203600000000D+04 0.000000000000D+00
     0.240000000000D+01 0.000000000000D+00-0.605359673500D-08 0.600000000000D+01
     0.280818000000D+06 0.400000000000D+01 0.000000000000D+00 0.000000000000D+00
G19 2019 01 16 08 00 00-0.362824182957D-03 0.397903932026D-11 0.000000000000D+00
     0.360000000000D+02-0.693750000000D+02 0.411945730622D-08 0.143190668100D+01
    -0.375322997570D-05 0.937195832375D-02 0.724010169506D-05 0.515361994362D+04
     0.288000000000D+06-0.175088644028D-06-0.155333538425D+01-0.149011611938D-06
     0.981259835697D+00 0.254093750000D+03 0.133284314688D+01-0.799176146037D-08
    -0.113219001740D-09 0.100000000000D+01 0.203600000000D+04 0.000000000000D+00
     0.240000000000D+01 0.000000000000D+00-0.153668224812D-07 0.360000000000D+02
     0.280818000000D+06 0.400000000000D+01 0.000000000000D+00 0.000000000000D+00
G 6 2019 01 16 08 00 00 0.295875594020D-03-0.761701812735D-11 0.000000000000D+00
     0.700000000000D+02-0.294062500000D+02 0.422946188835D-08 0.304737095407D+01
    -0.137835741043D-05 0.134675903246D-02 0.949949026108D-05 0.515377922249D+04
     0.288000000000D+06 0.745058059692D-08-0.607540590253D+00 0.279396772385D-07
     0.973912916274D+00 0.203625000000D+03-0.119563837310D+01-0.783782647693D-08
     0.272511351192D-09 0.100000000000D+01 0.203600000000D+04 0.000000000000D+00
     0.240000000000D+01 0.000000000000D+00 0.465661287308D-08 0.700000000000D+02
     0.280818000000D+06 0.400000000000D+01 0.000000000000D+00 0.000000000000D+00
